[{"OBJECT_NAME":"IRIDIUM 131","OBJECT_ID":"2017-083K","EPOCH":"2026-03-09T21:48:59.192352","MEAN_MOTION":14.34218122,"ECCENTRICITY":0.00022716,"INCLINATION":86.4027,"RA_OF_ASC_NODE":3.6576,"ARG_OF_PERICENTER":84.0859,"MEAN_ANOMALY":276.0595,"EPHEMERIS_TYPE":0,"CLASSIFICATION_TYPE":"U","NORAD_CAT_ID":43079,"ELEMENT_SET_NO":999,"REV_AT_EPOCH":42987,"BSTAR":0.00014526278,"MEAN_MOTION_DOT":4.27e-6,"MEAN_MOTION_DDOT":0},{"OBJECT_NAME":"COSMOS 1269","OBJECT_ID":"1981-041A","EPOCH":"2026-03-09T17:22:04.606752","MEAN_MOTION":14.3310322,"ECCENTRICITY":0.00086332,"INCLINATION":74.055,"RA_OF_ASC_NODE":187.1532,"ARG_OF_PERICENTER":78.255,"MEAN_ANOMALY":281.9569,"EPHEMERIS_TYPE":0,"CLASSIFICATION_TYPE":"U","NORAD_CAT_ID":12442,"ELEMENT_SET_NO":999,"REV_AT_EPOCH":34173,"BSTAR":8.5332573e-5,"MEAN_MOTION_DOT":2.08e-6,"MEAN_MOTION_DDOT":0}]
